CCSDS_OMM_VERS = 2.0
CREATION_DATE  = 
ORIGINATOR     = 

OBJECT_NAME    = STARLINK-36981
OBJECT_ID      = 2026-049G
CENTER_NAME    = EARTH
REF_FRAME      = TEME
TIME_SYSTEM    = UTC
MEAN_ELEMENT_THEORY = SGP/SGP4

EPOCH          = 2026-04-03T19:00:31.352256
MEAN_MOTION    = 15.80934626
ECCENTRICITY   = .0000941
INCLINATION    = 97.2853
RA_OF_ASC_NODE = 114.3343
ARG_OF_PERICENTER = 76.2041
MEAN_ANOMALY   = 283.9332

EPHEMERIS_TYPE = 0
CLASSIFICATION_TYPE = U
NORAD_CAT_ID   = 68148
ELEMENT_SET_NO = 999
REV_AT_EPOCH   = 337
BSTAR          = .22065E-2
MEAN_MOTION_DOT = .447367E-2
MEAN_MOTION_DDOT = 0

CCSDS_OMM_VERS = 2.0
CREATION_DATE  = 
ORIGINATOR     = 

OBJECT_NAME    = STARLINK-36992
OBJECT_ID      = 2026-049H
CENTER_NAME    = EARTH
REF_FRAME      = TEME
TIME_SYSTEM    = UTC
MEAN_ELEMENT_THEORY = SGP/SGP4

EPOCH          = 2026-04-03T18:59:26.866752
MEAN_MOTION    = 15.80850731
ECCENTRICITY   = .0000946
INCLINATION    = 97.2855
RA_OF_ASC_NODE = 114.3350
ARG_OF_PERICENTER = 72.5596
MEAN_ANOMALY   = 287.5776

EPHEMERIS_TYPE = 0
CLASSIFICATION_TYPE = U
NORAD_CAT_ID   = 68149
ELEMENT_SET_NO = 999
REV_AT_EPOCH   = 337
BSTAR          = .14032E-2
MEAN_MOTION_DOT = .277819E-2
MEAN_MOTION_DDOT = 0

CCSDS_OMM_VERS = 2.0
CREATION_DATE  = 
ORIGINATOR     = 

OBJECT_NAME    = STARLINK-37060
OBJECT_ID      = 2026-049J
CENTER_NAME    = EARTH
REF_FRAME      = TEME
TIME_SYSTEM    = UTC
MEAN_ELEMENT_THEORY = SGP/SGP4

EPOCH          = 2026-04-03T18:58:21.900864
MEAN_MOTION    = 15.80841212
ECCENTRICITY   = .0001391
INCLINATION    = 97.2856
RA_OF_ASC_NODE = 114.3361
ARG_OF_PERICENTER = 92.1734
MEAN_ANOMALY   = 267.9694

EPHEMERIS_TYPE = 0
CLASSIFICATION_TYPE = U
NORAD_CAT_ID   = 68150
ELEMENT_SET_NO = 999
REV_AT_EPOCH   = 337
BSTAR          = .12989E-2
MEAN_MOTION_DOT = .256397E-2
MEAN_MOTION_DDOT = 0

CCSDS_OMM_VERS = 2.0
CREATION_DATE  = 
ORIGINATOR     = 

OBJECT_NAME    = STARLINK-37073
OBJECT_ID      = 2026-049K
CENTER_NAME    = EARTH
REF_FRAME      = TEME
TIME_SYSTEM    = UTC
MEAN_ELEMENT_THEORY = SGP/SGP4

EPOCH          = 2026-04-03T20:00:01.999008
MEAN_MOTION    = 15.75213176
ECCENTRICITY   = .0001693
INCLINATION    = 97.2855
RA_OF_ASC_NODE = 114.3596
ARG_OF_PERICENTER = 120.5699
MEAN_ANOMALY   = 70.6888

EPHEMERIS_TYPE = 0
CLASSIFICATION_TYPE = U
NORAD_CAT_ID   = 68151
ELEMENT_SET_NO = 999
REV_AT_EPOCH   = 466
BSTAR          = .15041E-3
MEAN_MOTION_DOT = .22387E-3
MEAN_MOTION_DDOT = 0

CCSDS_OMM_VERS = 2.0
CREATION_DATE  = 
ORIGINATOR     = 

OBJECT_NAME    = STARLINK-37049
OBJECT_ID      = 2026-049L
CENTER_NAME    = EARTH
REF_FRAME      = TEME
TIME_SYSTEM    = UTC
MEAN_ELEMENT_THEORY = SGP/SGP4

EPOCH          = 2026-04-03T20:00:01.999008
MEAN_MOTION    = 15.75168369
ECCENTRICITY   = .0000967
INCLINATION    = 97.2852
RA_OF_ASC_NODE = 114.3790
ARG_OF_PERICENTER = 79.2481
MEAN_ANOMALY   = 158.0920

EPHEMERIS_TYPE = 0
CLASSIFICATION_TYPE = U
NORAD_CAT_ID   = 68152
ELEMENT_SET_NO = 999
REV_AT_EPOCH   = 466
BSTAR          = -.4062E-4
MEAN_MOTION_DOT = -.6178E-4
MEAN_MOTION_DDOT = 0

CCSDS_OMM_VERS = 2.0
CREATION_DATE  = 
ORIGINATOR     = 

OBJECT_NAME    = STARLINK-37072
OBJECT_ID      = 2026-049M
CENTER_NAME    = EARTH
REF_FRAME      = TEME
TIME_SYSTEM    = UTC
MEAN_ELEMENT_THEORY = SGP/SGP4

EPOCH          = 2026-04-03T20:00:01.999008
MEAN_MOTION    = 15.75208021
ECCENTRICITY   = .0001522
INCLINATION    = 97.2853
RA_OF_ASC_NODE = 114.3508
ARG_OF_PERICENTER = 106.6036
MEAN_ANOMALY   = 64.6764

EPHEMERIS_TYPE = 0
CLASSIFICATION_TYPE = U
NORAD_CAT_ID   = 68153
ELEMENT_SET_NO = 999
REV_AT_EPOCH   = 466
BSTAR          = .45747E-4
MEAN_MOTION_DOT = .6704E-4
MEAN_MOTION_DDOT = 0

CCSDS_OMM_VERS = 2.0
CREATION_DATE  = 
ORIGINATOR     = 

OBJECT_NAME    = STARLINK-36241
OBJECT_ID      = 2026-049N
CENTER_NAME    = EARTH
REF_FRAME      = TEME
TIME_SYSTEM    = UTC
MEAN_ELEMENT_THEORY = SGP/SGP4

EPOCH          = 2026-04-03T19:33:49.874112
MEAN_MOTION    = 15.75194668
ECCENTRICITY   = .0001476
INCLINATION    = 97.2846
RA_OF_ASC_NODE = 114.3016
ARG_OF_PERICENTER = 101.6388
MEAN_ANOMALY   = 258.5043

EPHEMERIS_TYPE = 0
CLASSIFICATION_TYPE = U
NORAD_CAT_ID   = 68154
ELEMENT_SET_NO = 999
REV_AT_EPOCH   = 337
BSTAR          = .15595E-2
MEAN_MOTION_DOT = .239161E-2
MEAN_MOTION_DDOT = 0

CCSDS_OMM_VERS = 2.0
CREATION_DATE  = 
ORIGINATOR     = 

OBJECT_NAME    = STARLINK-37048
OBJECT_ID      = 2026-049P
CENTER_NAME    = EARTH
REF_FRAME      = TEME
TIME_SYSTEM    = UTC
MEAN_ELEMENT_THEORY = SGP/SGP4

EPOCH          = 2026-04-03T20:21:57.018240
MEAN_MOTION    = 15.80829246
ECCENTRICITY   = .0001747
INCLINATION    = 97.2852
RA_OF_ASC_NODE = 114.4095
ARG_OF_PERICENTER = 72.9930
MEAN_ANOMALY   = 287.1530

EPHEMERIS_TYPE = 0
CLASSIFICATION_TYPE = U
NORAD_CAT_ID   = 68155
ELEMENT_SET_NO = 999
REV_AT_EPOCH   = 338
BSTAR          = .11293E-2
MEAN_MOTION_DOT = .221895E-2
MEAN_MOTION_DDOT = 0

CCSDS_OMM_VERS = 2.0
CREATION_DATE  = 
ORIGINATOR     = 

OBJECT_NAME    = STARLINK-36313
OBJECT_ID      = 2026-049Q
CENTER_NAME    = EARTH
REF_FRAME      = TEME
TIME_SYSTEM    = UTC
MEAN_ELEMENT_THEORY = SGP/SGP4

EPOCH          = 2026-04-03T18:51:52.491744
MEAN_MOTION    = 15.80856978
ECCENTRICITY   = .0001594
INCLINATION    = 97.2851
RA_OF_ASC_NODE = 114.3413
ARG_OF_PERICENTER = 81.3244
MEAN_ANOMALY   = 278.8205

EPHEMERIS_TYPE = 0
CLASSIFICATION_TYPE = U
NORAD_CAT_ID   = 68156
ELEMENT_SET_NO = 999
REV_AT_EPOCH   = 337
BSTAR          = .15822E-2
MEAN_MOTION_DOT = .314705E-2
MEAN_MOTION_DDOT = 0

CCSDS_OMM_VERS = 2.0
CREATION_DATE  = 
ORIGINATOR     = 

OBJECT_NAME    = STARLINK-37064
OBJECT_ID      = 2026-049R
CENTER_NAME    = EARTH
REF_FRAME      = TEME
TIME_SYSTEM    = UTC
MEAN_ELEMENT_THEORY = SGP/SGP4

EPOCH          = 2026-04-03T18:54:02.243808
MEAN_MOTION    = 15.80847655
ECCENTRICITY   = .0000876
INCLINATION    = 97.2852
RA_OF_ASC_NODE = 114.3393
ARG_OF_PERICENTER = 63.4126
MEAN_ANOMALY   = 296.7232

EPHEMERIS_TYPE = 0
CLASSIFICATION_TYPE = U
NORAD_CAT_ID   = 68157
ELEMENT_SET_NO = 999
REV_AT_EPOCH   = 337
BSTAR          = .1411E-2
MEAN_MOTION_DOT = .279378E-2
MEAN_MOTION_DDOT = 0

CCSDS_OMM_VERS = 2.0
CREATION_DATE  = 
ORIGINATOR     = 

OBJECT_NAME    = STARLINK-37069
OBJECT_ID      = 2026-049S
CENTER_NAME    = EARTH
REF_FRAME      = TEME
TIME_SYSTEM    = UTC
MEAN_ELEMENT_THEORY = SGP/SGP4

EPOCH          = 2026-04-03T19:28:44.444064
MEAN_MOTION    = 15.75207856
ECCENTRICITY   = .0001618
INCLINATION    = 97.2849
RA_OF_ASC_NODE = 114.3068
ARG_OF_PERICENTER = 110.5459
MEAN_ANOMALY   = 249.5980

EPHEMERIS_TYPE = 0
CLASSIFICATION_TYPE = U
NORAD_CAT_ID   = 68158
ELEMENT_SET_NO = 999
REV_AT_EPOCH   = 337
BSTAR          = .12109E-2
MEAN_MOTION_DOT = .184582E-2
MEAN_MOTION_DDOT = 0

CCSDS_OMM_VERS = 2.0
CREATION_DATE  = 
ORIGINATOR     = 

OBJECT_NAME    = STARLINK-37053
OBJECT_ID      = 2026-049T
CENTER_NAME    = EARTH
REF_FRAME      = TEME
TIME_SYSTEM    = UTC
MEAN_ELEMENT_THEORY = SGP/SGP4

EPOCH          = 2026-04-03T20:00:01.999008
MEAN_MOTION    = 15.75177907
ECCENTRICITY   = .0001486
INCLINATION    = 97.2851
RA_OF_ASC_NODE = 114.3949
ARG_OF_PERICENTER = 89.0689
MEAN_ANOMALY   = 184.2744

EPHEMERIS_TYPE = 0
CLASSIFICATION_TYPE = U
NORAD_CAT_ID   = 68159
ELEMENT_SET_NO = 999
REV_AT_EPOCH   = 466
BSTAR          = -.2218E-3
MEAN_MOTION_DOT = -.33068E-3
MEAN_MOTION_DDOT = 0

