STARLINK-36981          
1 68148U 26049G   26093.79202954  .00447367  00000+0  22065-2 0  9993
2 68148  97.2853 114.3343 0000941  76.2041 283.9332 15.80934626  3373
STARLINK-36992          
1 68149U 26049H   26093.79128318  .00277819  00000+0  14032-2 0  9993
2 68149  97.2855 114.3350 0000946  72.5596 287.5776 15.80850731  3379
STARLINK-37060          
1 68150U 26049J   26093.79053126  .00256397  00000+0  12989-2 0  9996
2 68150  97.2856 114.3361 0001391  92.1734 267.9694 15.80841212  3376
STARLINK-37073          
1 68151U 26049K   26093.83335647  .00022387  00000+0  15041-3 0  9996
2 68151  97.2855 114.3596 0001693 120.5699  70.6888 15.75213176  4660
STARLINK-37049          
1 68152U 26049L   26093.83335647 -.00006178  00000+0 -40620-4 0  9991
2 68152  97.2852 114.3790 0000967  79.2481 158.0920 15.75168369  4667
STARLINK-37072          
1 68153U 26049M   26093.83335647  .00006704  00000+0  45747-4 0  9990
2 68153  97.2853 114.3508 0001522 106.6036  64.6764 15.75208021  4663
STARLINK-36241          
1 68154U 26049N   26093.81516058  .00239161  00000+0  15595-2 0  9997
2 68154  97.2846 114.3016 0001476 101.6388 258.5043 15.75194668  3375
STARLINK-37048          
1 68155U 26049P   26093.84857660  .00221895  00000+0  11293-2 0  9994
2 68155  97.2852 114.4095 0001747  72.9930 287.1530 15.80829246  3388
STARLINK-36313          
1 68156U 26049Q   26093.78602421  .00314705  00000+0  15822-2 0  9996
2 68156  97.2851 114.3413 0001594  81.3244 278.8205 15.80856978  3370
STARLINK-37064          
1 68157U 26049R   26093.78752597  .00279378  00000+0  14110-2 0  9992
2 68157  97.2852 114.3393 0000876  63.4126 296.7232 15.80847655  3372
STARLINK-37069          
1 68158U 26049S   26093.81162551  .00184582  00000+0  12109-2 0  9990
2 68158  97.2849 114.3068 0001618 110.5459 249.5980 15.75207856  3379
STARLINK-37053          
1 68159U 26049T   26093.83335647 -.00033068  00000+0 -22180-3 0  9996
2 68159  97.2851 114.3949 0001486  89.0689 184.2744 15.75177907  4668
